ORBCOMM FM20            
1 25416U 98046D   25325.96223823  .00000868  00000+0  33354-3 0  9999
2 25416  44.9924 153.8951 0000950  52.1502 307.9432 14.37595313426969
ORBCOMM FM15            
1 25418U 98046F   25325.50314396  .00001143  00000+0  41216-3 0  9990
2 25418  44.9951 151.1284 0003942  23.0739 337.0286 14.39066620426905
ORBCOMM FM14            
1 25419U 98046G   25325.96526502  .00001219  00000+0  43278-3 0  9999
2 25419  44.9940 146.6948 0002607  24.8089 335.2885 14.39478234426941
ORBCOMM FM13            
1 25420U 98046H   25326.49890812  .00000955  00000+0  35851-3 0  9992
2 25420  44.9956 153.7286 0004713   1.3600 358.7260 14.38121521426022
ORBCOMM FM21            
1 25475U 98053A   25326.12708266  .00001004  00000+0  37758-3 0  9995
2 25475  45.0082 241.3563 0002844 318.3543  41.7088 14.37735804419973
ORBCOMM FM22            
1 25476U 98053B   25326.18345922  .00001350  00000+0  48029-3 0  9995
2 25476  45.0070 234.6101 0004332 313.5050  46.5438 14.38891303420026
ORBCOMM FM23            
1 25477U 98053C   25326.17507804  .00001187  00000+0  43575-3 0  9993
2 25477  45.0080 243.0062 0003724 310.5509  49.5015 14.37968351420131
